[{"OBJECT_NAME":"STARLINK-5064","OBJECT_ID":"2023-014AP","EPOCH":"2026-03-09T11:07:06.880512","MEAN_MOTION":14.9833408,"ECCENTRICITY":0.00032333,"INCLINATION":69.9988,"RA_OF_ASC_NODE":85.2168,"ARG_OF_PERICENTER":269.8115,"MEAN_ANOMALY":90.2673,"EPHEMERIS_TYPE":0,"CLASSIFICATION_TYPE":"U","NORAD_CAT_ID":55428,"ELEMENT_SET_NO":999,"REV_AT_EPOCH":17152,"BSTAR":6.7171096e-5,"MEAN_MOTION_DOT":7.09e-6,"MEAN_MOTION_DDOT":0},{"OBJECT_NAME":"CZ-6A DEB","OBJECT_ID":"2024-140ACJ","EPOCH":"2026-03-09T13:34:40.812960","MEAN_MOTION":14.75825013,"ECCENTRICITY":0.00997158,"INCLINATION":89.1651,"RA_OF_ASC_NODE":293.465,"ARG_OF_PERICENTER":131.8399,"MEAN_ANOMALY":229.139,"EPHEMERIS_TYPE":0,"CLASSIFICATION_TYPE":"U","NORAD_CAT_ID":61818,"ELEMENT_SET_NO":999,"REV_AT_EPOCH":7745,"BSTAR":0.0027745795,"MEAN_MOTION_DOT":0.00020689,"MEAN_MOTION_DDOT":0}]
